ONEWEB-0205             
1 48226U 21031S   25176.98264376 -.00000021  00000+0 -92414-4 0  9993
2 48226  87.9032   0.5636 0001863  83.6421 276.4921 13.14502003201480
ONEWEB-0206             
1 48227U 21031T   25176.80345119  .00000250  00000+0  64045-3 0  9990
2 48227  87.9028   0.5792 0001769  87.9277 272.2055 13.14501874201409
ONEWEB-0182             
1 48228U 21031U   25176.95092810  .00000223  00000+0  56574-3 0  9992
2 48228  87.9032   0.5930 0001662  92.0631 268.0689 13.14501891201643
ONEWEB-0186             
1 48229U 21031V   25176.96203081  .00000303  00000+0  78348-3 0  9990
2 48229  87.9032   0.5521 0001866  87.6130 272.5213 13.14502249201595
ONEWEB-0181             
1 48230U 21031W   25176.93982747 -.00000001  00000+0 -37977-4 0  9993
2 48230  87.9033   0.6282 0001987  88.3130 271.8228 13.14502903201433
ONEWEB-0188             
1 48231U 21031X   25176.97788663  .00000045  00000+0  86049-4 0  9999
2 48231  87.9032   0.6124 0001815  88.5697 271.5640 13.14502191201342
ONEWEB-0220             
1 48232U 21031Y   25176.94141674  .00000563  00000+0  14847-2 0  9992
2 48232  87.9025   0.5618 0001775  82.0113 278.1218 13.14501924201605
ONEWEB-0165             
1 48233U 21031Z   25176.96996628  .00000210  00000+0  53282-3 0  9998
2 48233  87.9033   0.5978 0001844  83.1022 277.0318 13.14494160201569
